NORAD_CAT_ID,OBJECT_NAME,OBJECT_TYPE,EPOCH,MEAN_MOTION,ECCENTRICITY,INCLINATION,RA_OF_ASC_NODE,ARG_OF_PERICENTER,MEAN_ANOMALY,BSTAR,MEAN_MOTION_DOT,MEAN_MOTION_DDOT,TLE_LINE0,TLE_LINE1,TLE_LINE2,SEMIMAJOR_AXIS,PERIOD,APOGEE,PERIGEE,DECAYED
53638.0,STARLINK-4594,PAYLOAD,2022-09-11 14:00:01,15.73205504,8.159999999999999e-05,53.2173,216.4183,86.0864,219.8952,-1.8962e-05,-3.28e-05,0.0,0 STARLINK-4594,1 53638U 22104BC  22254.58334491 -.00003280  00000-0 -18962-4 0  9991,2 53638  53.2173 216.4183 0000816  86.0864 219.8952 15.73205504  2303,6727.879,91.533,350.293,349.195,0.0
53638.0,STARLINK-4594,PAYLOAD,2022-09-11 22:00:00,15.73203251,8.77e-05,53.2174,214.768,90.9177,303.9992,1.8058e-05,1.916e-05,0.0,0 STARLINK-4594,1 53638U 22104BC  22254.91667824  .00001916  00000-0  18058-4 0  9995,2 53638  53.2174 214.7680 0000877  90.9177 303.9992 15.73203251  1300,6727.886,91.533,350.341,349.161,0.0
53638.0,STARLINK-4594,PAYLOAD,2022-09-12 04:00:00,15.73226361,0.0001422,53.216,213.5311,84.84,286.8972,-0.00046027,-0.00064794,0.0,0 STARLINK-4594,1 53638U 22104BC  22255.16667824 -.00064794  00000-0 -46027-3 0  9994,2 53638  53.2160 213.5311 0001422  84.8400 286.8972 15.73226361  2395,6727.82,91.532,350.642,348.728,0.0
53638.0,STARLINK-4594,PAYLOAD,2022-09-12 12:00:00,15.73186553,0.000127,53.216,211.8812,84.4395,16.2279,0.00028114,0.00038997,0.0,0 STARLINK-4594,1 53638U 22104BC  22255.50001157  .00038997  00000-0  28114-3 0  9994,2 53638  53.2160 211.8812 0001270  84.4395  16.2279 15.73186553  1305,6727.934,91.534,350.653,348.944,0.0
53638.0,STARLINK-4594,PAYLOAD,2022-09-12 22:00:00,15.73268645,0.0001349,53.2163,209.8185,93.9427,207.8697,-0.00044337,-0.00062566,0.0,0 STARLINK-4594,1 53638U 22104BC  22255.91667824 -.00062566  00000-0 -44337-3 0  9994,2 53638  53.2163 209.8185 0001349  93.9427 207.8697 15.73268645  1301,6727.699000000001,91.529,350.472,348.657,0.0
53638.0,STARLINK-4594,PAYLOAD,2022-09-13 06:00:00,15.73211062,0.0001299,53.216,208.171,85.4363,305.3653,-0.00052334,-0.00073463,0.0,0 STARLINK-4594,1 53638U 22104BC  22256.25001157 -.00073463  00000-0 -52334-3 0  9997,2 53638  53.2160 208.1710 0001299  85.4363 305.3653 15.73211062  2569,6727.864000000001,91.533,350.603,348.855,0.0
53638.0,STARLINK-4594,PAYLOAD,2022-09-13 14:00:01,15.73137725,0.0001001,53.2159,206.52,96.4711,23.2482,0.00023278,0.00032087,0.0,0 STARLINK-4594,1 53638U 22104BC  22256.58334491  .00032087  00000-0  23278-3 0  9993,2 53638  53.2159 206.5200 0001001  96.4711  23.2482 15.73137725  1303,6728.073,91.537,350.611,349.264,0.0
53638.0,STARLINK-4594,PAYLOAD,2022-09-13 16:00:00,15.73118416,9.92e-05,53.2161,206.1072,99.388,132.553,0.0006517,0.00091521,0.0,0 STARLINK-4594,1 53638U 22104BC  22256.66667824  .00091521  00000-0  65170-3 0  9996,2 53638  53.2161 206.1072 0000992  99.3880 132.5530 15.73118416  2637,6728.128000000002,91.538,350.66,349.325,0.0
53638.0,STARLINK-4594,PAYLOAD,2022-09-13 22:00:00,15.73220752,0.0001092,53.2164,204.8699,104.7355,103.836,-0.00041417,-0.00058394,0.0,0 STARLINK-4594,1 53638U 22104BC  22256.91667824 -.00058394  00000-0 -41417-3 0  9995,2 53638  53.2164 204.8699 0001092 104.7355 103.8360 15.73220752  1302,6727.8359999999975,91.532,350.436,348.966,0.0
53638.0,STARLINK-4594,PAYLOAD,2022-09-14 04:00:00,15.73137719,0.0001107999999999,53.217,203.635,82.0632,103.2242,0.00037823,0.00052653,0.0,0 STARLINK-4594,1 53638U 22104BC  22257.16667824  .00052653  00000-0  37823-3 0  9999,2 53638  53.2170 203.6350 0001108  82.0632 103.2242 15.73137719  2713,6728.073,91.537,350.68300000000005,349.19199999999995,0.0
53638.0,STARLINK-4594,PAYLOAD,2022-09-14 14:00:01,15.73112508,0.0001142,53.2174,201.5722,91.2017,295.2514,0.00083237,0.001174,0.0,0 STARLINK-4594,1 53638U 22104BC  22257.58334491  .00117400  00000-0  83237-3 0  9998,2 53638  53.2174 201.5722 0001142  91.2017 295.2514 15.73112508  1301,6728.145,91.538,350.778,349.241,0.0
53638.0,STARLINK-4594,PAYLOAD,2022-09-14 22:00:00,15.73242686,0.0001203,53.2157,199.9221,103.8481,11.5544,-0.00021403,-0.00030603,0.0,0 STARLINK-4594,1 53638U 22104BC  22257.91667824 -.00030603  00000-0 -21403-3 0  9992,2 53638  53.2157 199.9221 0001203 103.8481  11.5544 15.73242686  1302,6727.773,91.531,350.4480000000001,348.829,0.0
53638.0,STARLINK-4594,PAYLOAD,2022-09-15 14:00:01,15.73237826,0.0001157,53.2149,196.6231,107.1288,186.2062,-0.00024689,-0.0003518,0.0,0 STARLINK-4594,1 53638U 22104BC  22258.58334491 -.00035180  00000-0 -24689-3 0  9991,2 53638  53.2149 196.6231 0001157 107.1288 186.2062 15.73237826  1303,6727.7869999999975,91.531,350.431,348.874,0.0
53638.0,STARLINK-4594,PAYLOAD,2022-09-15 22:00:00,15.73216343,0.0001034,53.2151,194.9736,111.5717,270.7059,3.221e-06,-1.67e-06,0.0,0 STARLINK-4594,1 53638U 22104BC  22258.91667824 -.00000167  00000-0  32210-5 0  9994,2 53638  53.2151 194.9736 0001034 111.5717 270.7059 15.73216343  1303,6727.849,91.532,350.409,349.01800000000014,0.0
53638.0,STARLINK-4594,PAYLOAD,2022-09-16 00:00:00,15.7324396,9.93e-05,53.215,194.5618,109.0587,25.4486,-0.00048268,-0.00067941,0.0,0 STARLINK-4594,1 53638U 22104BC  22259.00001157 -.00067941  00000-0 -48268-3 0  9998,2 53638  53.2150 194.5618 0000993 109.0587  25.4486 15.73243960  3000,6727.77,91.531,350.30300000000005,348.967,0.0
53638.0,STARLINK-4594,PAYLOAD,2022-09-16 14:00:01,15.73154856,0.0001029,53.2152,191.6745,106.3344,93.8148,-0.00049349,-0.00069175,0.0,0 STARLINK-4594,1 53638U 22104BC  22259.58334491 -.00069175  00000-0 -49349-3 0  9993,2 53638  53.2152 191.6745 0001029 106.3344  93.8148 15.73154856  1303,6728.024,91.536,350.581,349.19699999999995,0.0
53638.0,STARLINK-4594,PAYLOAD,2022-09-16 22:00:00,15.73123526,0.000126,53.215,190.0254,107.4359,181.5536,0.00016744,0.00022867,0.0,0 STARLINK-4594,1 53638U 22104BC  22259.91667824  .00022867  00000-0  16744-3 0  9997,2 53638  53.2150 190.0254 0001260 107.4359 181.5536 15.73123526  1300,6728.113,91.538,350.826,349.13,0.0
53638.0,STARLINK-4594,PAYLOAD,2022-09-17 06:00:00,15.73116812,0.0001209,53.2143,188.3777,98.0191,279.8205,0.00070031,0.0009847,0.0,0 STARLINK-4594,1 53638U 22104BC  22260.25001157  .00098470  00000-0  70031-3 0  9999,2 53638  53.2143 188.3777 0001209  98.0191 279.8205 15.73116812  3197,6728.132,91.538,350.811,349.184,0.0
53638.0,STARLINK-4594,PAYLOAD,2022-09-17 14:00:01,15.73167605,0.0001190999999999,53.2143,186.7263,113.8081,352.9125,0.00051687,0.00072446,0.0,0 STARLINK-4594,1 53638U 22104BC  22260.58334491  .00072446  00000-0  51687-3 0  9996,2 53638  53.2143 186.7263 0001191 113.8081 352.9125 15.73167605  1304,6727.988,91.535,350.654,349.051,0.0
53638.0,STARLINK-4594,PAYLOAD,2022-09-17 22:00:00,15.73233968,0.0001274,53.2145,185.0772,113.3211,82.3107,0.00023838,0.00033015,0.0,0 STARLINK-4594,1 53638U 22104BC  22260.91667824  .00033015  00000-0  23838-3 0  9998,2 53638  53.2145 185.0772 0001274 113.3211  82.3107 15.73233968  1305,6727.7980000000025,91.531,350.52,348.806,0.0
53638.0,STARLINK-4594,PAYLOAD,2022-09-18 14:00:01,15.73246513,0.0001288,53.2147,181.7775,114.2233,259.4469,-0.00016214,-0.00023357,0.0,0 STARLINK-4594,1 53638U 22104BC  22261.58335648 -.00023357  00000-0 -16214-3 0  9998,2 53638  53.2147 181.7775 0001288 114.2233 259.4469 15.73246513  3403,6727.763000000001,91.53,350.494,348.761,0.0
53638.0,STARLINK-4594,PAYLOAD,2022-09-18 22:00:00,15.73241926,0.0001186,53.2146,180.1286,115.1175,347.459,-0.00010122,-0.00014826,0.0,0 STARLINK-4594,1 53638U 22104BC  22261.91667824 -.00014826  00000-0 -10122-3 0  9992,2 53638  53.2146 180.1286 0001186 115.1175 347.4590 15.73241926  1307,6727.776,91.531,350.439,348.843,0.0
53638.0,STARLINK-4594,PAYLOAD,2022-09-19 14:00:01,15.73204773,0.0001105,53.2143,176.8285,122.04,158.4738,7.667600000000001e-05,0.00010156,0.0,0 STARLINK-4594,1 53638U 22104BC  22262.58334491  .00010156  00000-0  76676-4 0  9994,2 53638  53.2143 176.8285 0001105 122.0400 158.4738 15.73204773  3567,6727.882,91.533,350.49,349.00300000000016,0.0
53638.0,STARLINK-4594,PAYLOAD,2022-09-19 22:00:00,15.73243959,0.0001249,53.2145,175.1799,117.8419,251.5979,-0.0005626,-0.00078987,0.0,0 STARLINK-4594,1 53638U 22104BC  22262.91667824 -.00078987  00000-0 -56260-3 0  9994,2 53638  53.2145 175.1799 0001249 117.8419 251.5979 15.73243959  1303,6727.77,91.531,350.475,348.795,0.0
53638.0,STARLINK-4594,PAYLOAD,2022-09-20 14:00:01,15.73144274,0.0001068,53.2148,171.8799,125.7242,61.6112,0.00069724,0.00098147,0.0,0 STARLINK-4594,1 53638U 22104BC  22263.58334491  .00098147  00000-0  69724-3 0  9996,2 53638  53.2148 171.8799 0001068 125.7242  61.6112 15.73144274  1309,6728.054,91.536,350.63800000000015,349.2,0.0
53638.0,STARLINK-4594,PAYLOAD,2022-09-20 22:00:01,15.73250137,0.0001143,53.2147,170.2316,119.1143,157.1806,-0.00034361,-0.00048667,0.0,0 STARLINK-4594,1 53638U 22104BC  22263.91668981 -.00048667  00000-0 -34361-3 0  9990,2 53638  53.2147 170.2316 0001143 119.1143 157.1806 15.73250137  1304,6727.752,91.53,350.386,348.848,0.0
53638.0,STARLINK-4594,PAYLOAD,2022-09-21 06:00:00,15.73195706,0.0001217,53.2142,168.583,107.2305,257.933,-0.0002767,-0.00039264,0.0,0 STARLINK-4594,1 53638U 22104BC  22264.25001157 -.00039264  00000-0 -27670-3 0  9992,2 53638  53.2142 168.5830 0001217 107.2305 257.9330 15.73195706  3820,6727.906999999997,91.533,350.591,348.954,0.0
53638.0,STARLINK-4594,PAYLOAD,2022-09-21 22:00:00,15.73200094,0.0001453,53.2147,165.2833,116.8439,66.1086,0.00023038,0.00031835,0.0,0 STARLINK-4594,1 53638U 22104BC  22264.91667824  .00031835  00000-0  23038-3 0  9992,2 53638  53.2147 165.2833 0001453 116.8439  66.1086 15.73200094  3935,6727.895,91.533,350.737,348.782,0.0
53638.0,STARLINK-4594,PAYLOAD,2022-09-22 06:00:00,15.73229645,0.0001176,53.2147,163.6346,115.1937,156.6583,-9.6146e-05,-0.00014108,0.0,0 STARLINK-4594,1 53638U 22104BC  22265.25001157 -.00014108  00000-0 -96146-4 0  9998,2 53638  53.2147 163.6346 0001176 115.1937 156.6583 15.73229645  3988,6727.811,91.531,350.467,348.884,0.0
